ONEWEB-0037             
1 45440U 20020S   23224.03765607 -.00000534  00000+0 -15439-2 0  9995
2 45440  87.8885 227.6472 0001886  87.4170 272.7174 13.11416358166379
ONEWEB-0042             
1 45441U 20020T   23224.09701669  .00000074  00000+0  17318-3 0  9996
2 45441  87.8883 227.6469 0001753  89.1281 271.0047 13.11415817166357
ONEWEB-0098             
1 45442U 20020U   23225.03162999 -.00000401  00000+0 -11680-2 0  9990
2 45442  87.8890 227.4711 0002142  96.8662 263.2709 13.11415085166440
ONEWEB-0055             
1 45443U 20020V   23224.71268895 -.00000031  00000+0 -12329-3 0  9998
2 45443  87.8891 227.5383 0002037  92.8205 267.3156 13.11415637166387
ONEWEB-0093             
1 45444U 20020W   23224.76248810  .00000505  00000+0  13877-2 0  9991
2 45444  87.8884 227.5171 0002009 100.6002 259.5353 13.11418252166453
ONEWEB-0029             
1 45445U 20020X   23224.40326856  .00000064  00000+0  14596-3 0  9990
2 45445  87.8890 227.5936 0001833  96.1646 263.9691 13.11411169166383
ONEWEB-0068             
1 45446U 20020Y   23224.06839488  .00000387  00000+0  10571-2 0  9999
2 45446  87.8885 227.6524 0001918 101.1649 258.9694 13.11418123166289
ONEWEB-0046             
1 45447U 20020Z   23224.06521689  .00000260  00000+0  69737-3 0  9990
2 45447  87.8885 227.6649 0001880  86.7317 273.4026 13.11418316166292
